ORBCOMM-X               
1 21576U 91050C   24130.72021912  .00000660  00000+0  21237-3 0  9999
2 21576  98.3911 198.5616 0002999 345.3660  14.7443 14.42484832723933
ORBCOMM FM01            
1 23545U 95017A   24130.89465144  .00008427  00000+0  11231-2 0  9992
2 23545  69.9684 351.9465 0008205 226.4000 133.6469 14.79910564552634
ORBCOMM FM02            
1 23546U 95017B   24130.92352030  .00010918  00000+0  14651-2 0  9993
2 23546  69.9710  11.2987 0009945 219.8738 140.1681 14.79505741552283
ORBCOMM FM08            
1 25112U 97084A   24130.70403491  .00002355  00000+0  74625-3 0  9998
2 25112  45.0139 139.9541 0008007 356.2042   3.8746 14.42510484383043
ORBCOMM FM10            
1 25113U 97084B   24130.71089537  .00002347  00000+0  74525-3 0  9991
2 25113  45.0151 141.7759 0006561 327.3138  32.7305 14.42423306558196
ORBCOMM FM11            
1 25114U 97084C   24130.72950908  .00002552  00000+0  80833-3 0  9999
2 25114  45.0136 141.7547 0007332 329.1588  30.8830 14.42307492383163
ORBCOMM FM12            
1 25115U 97084D   24130.75861831  .00002574  00000+0  81589-3 0  9992
2 25115  45.0144 141.3120 0006351 327.5270  32.5189 14.42265216383204
ORBCOMM FM09            
1 25116U 97084E   24130.35427844  .00002072  00000+0  66577-3 0  9994
2 25116  45.0147 143.9279 0007704 316.5176  43.5066 14.42226978383115
